ZHUHAI-1 02 (CAS-4B)    
1 42759U 17034B   23121.92304354  .00009517  00000+0  48885-3 0  9998
2 42759  43.0186  12.7163 0009632 168.9962 301.6991 15.16611100324619
ZHUHAI-1 01 (CAS-4A)    
1 42761U 17034D   23121.94011411  .00008923  00000+0  45827-3 0  9995
2 42761  43.0169  11.1631 0010593 171.6772 301.1320 15.16670698324623
MAX VALIER SAT          
1 42778U 17036P   23121.64141641  .00019714  00000+0  55046-3 0  9995
2 42778  97.1617 157.6399 0006282 260.9940  99.0594 15.36734601325573
RADFXSAT (FOX-1B)       
1 43017U 17073E   23121.64929670  .00004813  00000+0  34360-3 0  9999
2 43017  97.6373   7.8348 0234210 222.5982 135.6862 14.85487164294277
FOX-1D (AO-92)          
1 43137U 18004AC  23121.68120910  .00029091  00000+0  66207-3 0  9991
2 43137  97.3305 200.4753 0004333 303.8436  56.2399 15.42918788295135
DIWATA-2B               
1 43678U 18084H   23121.95555057  .00002199  00000+0  21571-3 0  9998
2 43678  98.0144 265.0168 0008490 320.4667  39.5939 14.93269244245365
ES'HAIL 2               
1 43700U 18090A   23121.84961199  .00000153  00000+0  00000+0 0  9995
2 43700   0.0177 266.8446 0001392 160.2920 124.0480  1.00274108 16225
FOX-1CLIFF (AO-95)      
1 43770U 18099N   23121.85138228  .00005433  00000+0  44840-3 0  9991
2 43770  97.5755 184.6385 0010330 284.5833  75.4245 14.99361085240667
ITASAT 1                
1 43786U 18099AE  23121.77763378  .00004289  00000+0  35729-3 0  9993
2 43786  97.5775 185.6036 0012490 275.0783  84.9015 14.99097725240698
JY1SAT (JO-97)          
1 43803U 18099AX  23121.70402167  .00005308  00000+0  42767-3 0  9995
2 43803  97.5713 185.4859 0011749 261.2891  98.7003 15.00287245240729
UWE-4                   
1 43880U 18111E   23121.72118351  .00005670  00000+0  44001-3 0  9991
2 43880  97.6415  27.6416 0015409 339.3854  20.6747 15.01659954237392
NEXUS (FO-99)           
1 43937U 19003F   23121.95724955  .00047467  00000+0  89806-3 0  9995
2 43937  97.0921 149.8792 0016153  90.6535 269.6567 15.48106189238883
JAISAT-1                
1 44419U 19038F   23121.89899217  .00023833  00000+0  86681-3 0  9995
2 44419  97.6719 102.1606 0018220 103.4858 256.8413 15.28094186211468
DUCHIFAT-3              
1 44854U 19089C   23121.87708389  .00008643  00000+0  59319-3 0  9991
2 44854  36.9649   7.9059 0010756 299.2502 156.2748 15.05521681185856
CAS-6 (TIANQIN 1)       
1 44881U 19093C   23121.85976530  .00001346  00000+0  17429-3 0  9998
2 44881  97.8614 201.0997 0013732 225.5800 134.4268 14.82427845181933
RS-44 & BREEZE-KM R/B   
1 44909U 19096E   23121.78219626  .00000013  00000+0  13986-4 0  9995
2 44909  82.5261  18.7816 0216441 295.6497  62.2387 12.79720262156225
BY70-2                  
1 45857U 20042B   23121.92856720  .00020092  00000+0  21490-2 0  9995
2 45857  97.9256 201.7299 0011336 155.5716 204.5984 14.88718992152651
SALSAT                  
1 46495U 20068K   23121.85728391  .00005024  00000+0  33629-3 0  9992
2 46495  97.7669  69.3951 0013813 278.8497  81.1166 15.07312478142095
RADFXSAT-2 (AO-109)     
1 47311U 21002C   23121.69209063  .00026810  00000+0  74215-3 0  9993
2 47311  60.6812 236.9793 0021459 150.6500 209.5804 15.36691855127139
UVSQ-SAT                
1 47438U 21006AB  23121.73277612  .00012945  00000+0  55262-3 0  9992
2 47438  97.3890 179.5452 0008995 237.3927 122.6442 15.22986423125574
DIY-1 (ARDUIQUBE)       
1 47963U 21022AH  23121.68154300  .00121009  00000+0  24591-2 0  9997
2 47963  97.5024  28.2085 0014191 104.2027 256.0799 15.45763154115371
XW-3 (CAS-9)            
1 50466U 21131B   23121.92697596  .00000650  00000+0  22553-3 0  9991
2 50466  98.5516 203.6176 0003013 277.8825  82.2020 14.38857053 70700
TEVEL-3                 
1 50988U 22002E   23121.98548904  .00019744  00000+0  83168-3 0  9995
2 50988  97.4371 189.3189 0008518  49.2561  75.1372 15.23350649 71721
TEVEL-8                 
1 50989U 22002F   23121.85908247  .00019608  00000+0  82766-3 0  9994
2 50989  97.4380 189.2467 0008505  47.8239  11.7883 15.23282956 71708
TEVEL-5                 
1 50998U 22002Q   23121.81709870  .00020542  00000+0  84594-3 0  9991
2 50998  97.4359 189.4824 0009514  41.1411  52.5740 15.24100260 71728
TEVEL-6                 
1 50999U 22002R   23122.01778102  .00020518  00000+0  84467-3 0  9991
2 50999  97.4354 189.6774 0009488  41.0800  81.0952 15.24111068 71754
TEVEL-1                 
1 51013U 22002AF  23121.86018708  .00019652  00000+0  82904-3 0  9991
2 51013  97.4365 189.1432 0008204  48.8152  62.4780 15.23303614 71706
TEVEL-7                 
1 51062U 22002CG  23121.86050979  .00019695  00000+0  83102-3 0  9999
2 51062  97.4376 189.2220 0008431  46.8070  12.5543 15.23296129 71702
TEVEL-4                 
1 51063U 22002CH  23121.80586332  .00019658  00000+0  83060-3 0  9993
2 51063  97.4379 189.1557 0008289  46.8173  47.7510 15.23250120 71696
TEVEL-2                 
1 51069U 22002CP  23121.98732845  .00019770  00000+0  83283-3 0  9992
2 51069  97.4363 189.2939 0008344  48.3402  75.9920 15.23350875 71724
GREENCUBE               
1 53106U 22080B   23119.33596861 -.00000003  00000+0  00000+0 0  9996
2 53106  70.1690 336.7020 0008223 196.0222 164.0178  6.42557317 18611
RS29S (SXC3-2110 CYCLO*)
1 53373U 22096D   23121.81583271  .00031776  00000+0  90082-3 0  9999
2 53373  97.4172  27.6658 0002468  77.8410 354.6693 15.36183378 40560
RS32S (SXC3-212 MONITO*)
1 53374U 22096E   23121.95526711  .00029113  00000+0  84258-3 0  9991
2 53374  97.4154  27.7500 0002079  68.7342 351.3939 15.35553831 40582
RS34S (SXC3-218 KUZBAS*)
1 53375U 22096F   23121.93658723  .00024183  00000+0  73564-3 0  9999
2 53375  97.4172  27.5312 0001912  77.8241  53.4812 15.34017885 40567
RS23S (SXC3-21 UTMN)    
1 53376U 22096G   23121.89624781  .00024998  00000+0  74911-3 0  9993
2 53376  97.4170  27.5509 0001997  72.8191 348.2894 15.34487676 40560
RS28S (SXC3-214 MIET-A*)
1 53377U 22096H   23121.93773264  .00023493  00000+0  71909-3 0  9993
2 53377  97.4181  27.5380 0001659  74.5425  61.9053 15.33828335 40560
RS26S (KAI-1)           
1 53378U 22096J   23121.85857531  .00018863  00000+0  60056-3 0  9991
2 53378  97.4193  27.3149 0001417  77.0319 348.4758 15.32617641 40545
RS19S (SXC3-219 ISOI)   
1 53381U 22096M   23121.95948295  .00023058  00000+0  68946-3 0  9992
2 53381  97.4168  27.7644 0002462 179.8894 236.6500 15.34572640 40583
RS21S (CUBESX-HSE-2)    
1 53383U 22096P   23121.81844356  .00024189  00000+0  71690-3 0  9998
2 53383  97.4176  27.6705 0002612 187.1995 259.2062 15.34842644 40568
RS30S (SXC3-217 SIREN)  
1 53384U 22096Q   23121.99996957  .00019778  00000+0  60843-3 0  9999
2 53384  97.4181  27.7286 0002726 187.2253 230.2800 15.33701434 40585
RS20S (GEOSCAN-EDELVEIS)
1 53385U 22096R   23121.82729259  .00032639  00000+0  88320-3 0  9992
2 53385  97.4163  28.0930 0002939 176.3296 256.9260 15.37627647 40625
RS33S (SXC3-215 VIZARD) 
1 53386U 22096S   23121.83941218  .00042994  00000+0  10597-2 0  9990
2 53386  97.4165  28.5323 0003392 175.4470 257.2193 15.40434743 40645
CAS-5A (FO-118)         
1 54684U 22167C   23121.95627296  .00012903  00000+0  73292-3 0  9990
2 54684  97.5549 259.9059 0014918 132.9763  13.3529 15.12953899 21683
